ELFIN-B                 
1 43616U 18070D   21046.53322559  .00004692  00000-0  10650-3 0  9999
2 43616  93.0190 255.3839 0017086 111.8829 248.4247 15.42927752135960
ELFIN-A                 
1 43617U 18070E   21046.52528305  .00004615  00000-0  10359-3 0  9997
2 43617  93.0243 256.1112 0016489 109.0856 251.2187 15.43273416135976
CUBEBEL-1 (BSUSAT-1)    
1 43666U 18083E   21046.59239980  .00001206  00000-0  60958-4 0  9994
2 43666  97.4694  76.4406 0013482 228.8984 249.4415 15.18910202127516
CICERO 10               
1 43690U 18088A   21046.53984507  .00000998  00000-0  43266-4 0  9992
2 43690  85.0358 278.0847 0016146 132.0625 228.1993 15.20843389125696
IRVINE01                
1 43693U 18088D   21046.57574123  .00002840  00000-0  11341-3 0  9994
2 43693  85.0319 275.9023 0018871 111.9816 248.3435 15.24485543125865
PROXIMA I               
1 43694U 18088E   21046.38519829  .00000892  00000-0  36414-4 0  9990
2 43694  85.0298 276.1045 0020969 107.5165 252.8371 15.22571659125803
PROXIMA II              
1 43696U 18088G   21046.58049878  .00000930  00000-0  38053-4 0  9990
2 43696  85.0298 275.9818 0021029 106.8623 253.4928 15.22571567125824
FACSAT-1                
1 43721U 18096C   21046.48939493  .00001552  00000-0  58995-4 0  9996
2 43721  97.3977 124.5560 0016509 349.3572  21.7786 15.28220480123490
CENTAURI-2              
1 43722U 18096D   21046.47299072  .00002107  00000-0  77074-4 0  9994
2 43722  97.3982 125.1116 0016275 348.2528  11.8330 15.29087759123519
INNOSAT-2               
1 43738U 18096V   21046.39422978  .00003028  00000-0  99353-4 0  9992
2 43738  97.4033 128.1217 0021515 350.3423  71.8644 15.32181085123706
SIRION PATHFINDER-2     
1 43759U 18099B   21046.48302228  .00000742  00000-0  72103-4 0  9997
2 43759  97.6784 119.6533 0015936  92.8653 267.4414 14.95425518120258
CORVUS BC4              
1 43767U 18099K   21046.44800077  .00000318  00000-0  34293-4 0  9994
2 43767  97.6759 118.7565 0013308  95.8377 264.4314 14.94860323120208
MOVE-II                 
1 43780U 18099Y   21046.26307999  .00000523  00000-0  51980-4 0  9994
2 43780  97.6801 119.4835 0014901 103.3674 256.9209 14.95722597120204
SPACEBEE-7              
1 43816U 18099BL  21046.42627172  .00000540  00000-0  53177-4 0  9999
2 43816  97.6821 120.1764 0014970  87.8097 272.4838 14.95963837119817
SPACEBEE-5              
1 43817U 18099BM  21046.45535994  .00000671  00000-0  63378-4 0  9992
2 43817  97.6890 121.1315 0014140  88.1403 272.1438 14.96940194119850
SPACEBEE-6              
1 43818U 18099BN  21046.48495171  .00001057  00000-0  98501-4 0  9993
2 43818  97.6842 120.5188 0014880  88.0191 272.2734 14.96262578119980
SHIELDS 1               
1 43850U 18104B   21046.34699853  .00000589  00000-0  24213-4 0  9992
2 43850  85.0307  14.7192 0012490 255.5600 104.4256 15.21692540120402
STF-1                   
1 43852U 18104D   21046.35007941  .00001356  00000-0  57624-4 0  9991
2 43852  85.0345  15.3751 0011906 273.3135  86.6745 15.21984034120389
ZACUBE-2                
1 43907U 18111AH  21046.55647307  .00000548  00000-0  24688-4 0  9994
2 43907  97.2471 304.7116 0021656   9.5199 110.2438 15.24957712119058
LUME 1                  
1 43908U 18111AJ  21046.42982463  .00001175  00000-0  48547-4 0  9993
2 43908  97.2467 304.9803 0021084   8.4452 351.7138 15.25757961119069
AOBA VELOX-IV           
1 43940U 19003J   21046.59902932  .00002453  00000-0  96590-4 0  9992
2 43940  97.1963  95.2338 0024833  82.8995 277.5066 15.26252110115711
CATSAT-2                
1 44029U 98067PV  21046.29353648  .00072826  00000-0  30879-3 0  9997
2 44029  51.6383 152.8753 0004508 306.6763  53.3826 15.84648851116720
DELPHINI                
1 44030U 98067PW  21046.53988315  .00145630  19259-4  40125-3 0  9990
2 44030  51.6261 145.1514 0005921 329.2668  30.7991 15.93620436116813
UNITE                   
1 44031U 98067PX  21046.60915775  .00020871  00000-0  17798-3 0  9998
2 44031  51.6371 170.7845 0002552 272.5983  87.4722 15.69495400116482
CATSAT-1                
1 44033U 98067PZ  21045.59895468  .00088828  00000-0  37336-3 0  9999
2 44033  51.6384 156.4962 0003970 304.6952  55.3678 15.84758346116524
RAAVANA-1               
1 44329U 98067QE  21046.41375784  .00021187  00000-0  20163-3 0  9998
2 44329  51.6364 189.8311 0004974 198.1099 161.9721 15.66770714 94960
UGUISU                  
1 44330U 98067QF  21046.38309929  .00020194  00000-0  19422-3 0  9997
2 44330  51.6339 190.3130 0004980 197.0502 163.0327 15.66542259 94937
NEPALISAT-1             
1 44331U 98067QG  21046.40538349  .00021397  00000-0  20376-3 0  9997
2 44331  51.6338 189.7129 0004951 200.2516 159.8284 15.66747223 94952
SPOOQY-1                
1 44332U 98067QH  21046.56588862  .00022077  00000-0  21316-3 0  9991
2 44332  51.6349 189.3083 0004230 203.1541 156.9265 15.66383042 94930
SPACEBEE-9              
1 44370U 19037F   21046.41065075  .00016256  00000-0  28559-3 0  9991
2 44370  45.0025 191.8058 0012048 214.9629 145.0472 15.50308634 92207
SPACEBEE-8              
1 44371U 19037G   21046.60971424  .00070479  00000-0  66517-3 0  9990
2 44371  45.0019 168.7333 0011212 282.7557  77.2088 15.66114048 92496
IOD-1 GEMS              
1 44385U 98067QK  21046.40790744  .00088972  00000-0  43987-3 0  9990
2 44385  51.6344 177.7620 0002601 261.9079  98.1628 15.81310034 92597
MOVE-IIB                
1 44398U 19038N   21046.58822258  .00001421  00000-0  83362-4 0  9996
2 44398  97.5662  11.2924 0025285  13.4414 346.7478 15.13143517 89336
SONATE                  
1 44400U 19038Q   21046.58033829  .00000335  00000-0  23055-4 0  9994
2 44400  97.5721  11.2404 0025628  12.4655 347.7191 15.12315369 89312
LUCKY-7                 
1 44406U 19038W   21046.15138283  .00000755  00000-0  46686-4 0  9994
2 44406  97.5741  11.0096 0024802  13.7671 346.4230 15.12662506 89251
BEESAT 9                
1 44412U 19038AC  21045.86280401  .00001026  00000-0  61769-4 0  9999
2 44412  97.5727  10.7210 0023019  20.4996 339.7154 15.12890577 88913
JAISAT-1                
1 44419U 19038F   21046.20235270  .00001034  00000-0  61392-4 0  9990
2 44419  97.5731  11.5085 0021778  18.1345 342.0657 15.13375469 89304
SWIATOWID               
1 44426U 98067QL  21046.49921177  .00212186  00000-0  70372-3 0  9995
2 44426  51.6365 172.0709 0003062 296.3377 156.2809 15.89208163 92681
KRAKSAT                 
1 44427U 98067QM  21046.45324314  .00014427  00000-0  16829-3 0  9997
2 44427  51.6411 198.3134 0003731 145.5469 271.3810 15.61906353 92370
VCC A                   
1 44428U 98067QN  21046.40706317  .00019919  00000-0  19906-3 0  9990
2 44428  51.6373 192.8502 0002552 175.5334 184.5685 15.65597457 92448
ENTRYSAT                
1 44429U 98067QP  21046.40612997  .00029130  00000-0  24956-3 0  9998
2 44429  51.6329 188.2475 0002122 186.1089 173.9882 15.69168938 92506
VCC C                   
1 44430U 98067QQ  21046.42631878  .00049652  00000-0  32741-3 0  9993
2 44430  51.6318 182.3636 0002185 244.3653 115.7121 15.75112212 91413
VCC B                   
1 44431U 98067QR  21046.39085750  .00019449  00000-0  19285-3 0  9991
2 44431  51.6347 192.6834 0002630 175.9180 184.1837 15.65812446 92385
DUCHIFAT-3              
1 44854U 19089C   21046.46319875  .00000361  00000-0  35366-4 0  9995
2 44854  36.9676 101.9703 0008431 238.9585 121.0326 14.99327435 64788
EYESAT-NANO             
1 44877U 19092E   21046.32301937  .00001189  00000-0  62566-4 0  9990
2 44877  97.4564 231.7441 0011963 253.0151 106.9772 15.17541082 64417
ORBITAL FACTORY 2 (OF-2)
1 45113U 19071C   21046.62018087  .00002398  00000-0  81140-4 0  9997
2 45113  51.6417 267.8180 0012106 210.1549 149.8737 15.34776885 58459
M2 PATHFINDER           
1 45727U 20037E   21046.23847372  .00000330  00000-0  38647-4 0  9994
2 45727  97.7042 226.7504 0012393 208.7867 151.2717 14.91313349 34209
NETSAT-4                
1 46504U 20068U   21046.59033891 -.00000058  00000-0  19925-6 0  9992
2 46504  97.6761 344.5540 0009920 155.1868 204.9798 15.01952692 20940
NETSAT-3                
1 46505U 20068V   21046.06083305 -.00000054  00000-0  49979-6 0  9998
2 46505  97.6772 344.0188 0008943 150.6852 209.4871 15.01923784 20877
NETSAT-1                
1 46506U 20068W   21046.59747944 -.00000053  00000-0  52371-6 0  9992
2 46506  97.6784 344.5388 0008355 145.4365 214.7360 15.01896153 20956
NETSAT-2                
1 46507U 20068X   21046.53250479 -.00000049  00000-0  86975-6 0  9991
2 46507  97.6782 344.4752 0008655 145.9119 214.2634 15.01876048 20897
SPOC                    
1 46921U 98067RR  21046.53434690  .00006083  00000-0  10698-3 0  9993
2 46921  51.6417 222.9339 0001562 352.8861   7.2107 15.51944170 15915
BOBCAT-1                
1 46922U 98067RS  21046.51318413  .00007735  00000-0  13093-3 0  9993
2 46922  51.6420 222.7967 0001123 355.3574   4.7405 15.52587423 15870
NEUTRON-1               
1 46923U 98067RT  21046.02543393  .00006471  00000-0  11376-3 0  9995
2 46923  51.6415 225.5338 0001578  11.5083 348.5943 15.51830922 15867
1998-067RU              
1 46924U 98067RU  21046.47804928  .00013021  00000-0  20646-3 0  9998
2 46924  51.6408 222.5565 0001179  63.7838 296.3273 15.53741431 15913
DESCENT                 
1 46927U 98067RX  21046.22167328  .00006028  00000-0  10659-3 0  9992
2 46927  51.6414 224.5933 0001939  37.4875 322.6250 15.51808012 15798
